ELEKTRO-L 3             
1 44903U 19095A   26192.89227299 -.00000093  00000+0  00000+0 0  9993
2 44903   0.3168  82.1721 0001169  19.0367 225.7919  1.00271254 23950
SHIJIAN-20 (SJ-20)      
1 44910U 19097A   26192.78772152  .00000135  00000+0  00000+0 0  9990
2 44910   4.9785  74.7624 0015273  57.0767 126.2552  1.00267470 23941
TJS-5                   
1 44978U 20002A   26192.87123148 -.00000338  00000+0  00000+0 0  9993
2 44978   0.0544  73.7714 0007697 340.4814 296.6685  1.00269803 23959
EUTELSAT KONNECT        
1 45027U 20005B   26192.07752973  .00000058  00000+0  00000+0 0  9996
2 45027   0.0674  93.9375 0002180 138.2522  91.9289  1.00274006 24573
JCSAT-17                
1 45245U 20013A   26192.87703818 -.00000309  00000+0  00000+0 0  9999
2 45245   5.3920 357.0937 0002844 128.2195 256.2141  1.00270308 23480
GEO-KOMPSAT-2B          
1 45246U 20013B   26192.80416251 -.00000339  00000+0  00000+0 0  9998
2 45246   0.0486 227.7299 0000731   9.7941 109.9377  1.00271556 23525
AEHF-6 (USA 298)        
1 45465U 20022B   26192.87747152 -.00000290  00000+0  00000+0 0  9991
2 45465   2.4958 301.4532 0042075  15.3891  66.5875  1.00272445 23262
BEIDOU-3 G3             
1 45807U 20040A   26192.80069582 -.00000351  00000+0  00000+0 0  9996
2 45807   2.5040  67.4759 0001762 327.4813 293.4558  1.00265664 22313
APSTAR-6D               
1 45863U 20045A   26192.87660484 -.00000314  00000+0  00000+0 0  9997
2 45863   0.0428  92.8120 0001227  21.2806 265.2799  1.00269526 22101
KOREASAT 116            
1 45920U 20048A   26192.80182250 -.00000358  00000+0  00000+0 0  9995
2 45920   0.0142  25.4271 0000743  95.5084 213.6268  1.00268344 21880
EXPRESS 103             
1 45985U 20053A   26192.64664731 -.00000275  00000+0  00000+0 0  9991
2 45985   0.0297 266.1445 0001082 206.0138 146.6841  1.00270707 21894
EXPRESS 80              
1 45986U 20053B   26192.97264968  .00000000  00000+0  00000+0 0  9991
2 45986   0.0207  33.2090 0001735 167.5948 159.1891  1.00271327 21871
GALAXY 30 (G-30)        
1 46114U 20056C   26192.75406277  .00000000  00000+0  00000+0 0  9995
2 46114   0.0298  46.6859 0001931  69.9246 319.5079  1.00270605 21531
TIANTONG-1 2            
1 46916U 20082A   26192.90967000 -.00000351  00000+0  00000+0 0  9997
2 46916   0.7616 331.1426 0001300 143.0951 267.9817  1.00268201 20906
LUCAS (JDRS-1)          
1 47202U 20089A   26192.86811147 -.00000232  00000+0  00000+0 0  9996
2 47202   0.0378 278.0183 0001624 184.4659 230.6088  1.00271505 20666
SXM-7                   
1 47240U 20096A   26192.20718954 -.00000198  00000+0  00000+0 0  9997
2 47240   0.0261  98.9403 0003516  22.6902 156.9180  1.00271031  7683
TURKSAT 5A              
1 47306U 21001A   26192.06641987  .00000162  00000+0  00000+0 0  9992
2 47306   0.0141  67.3124 0000183 205.2380  71.2662  1.00272283 20206
TIANTONG-1 3            
1 47321U 21003A   26192.89446854 -.00000149  00000+0  00000+0 0  9994
2 47321   1.7384 340.7901 0003072 139.0954 213.4642  1.00270952 20201
TJS-6                   
1 47613U 21010A   26192.74288272  .00000047  00000+0  00000+0 0  9994
2 47613   0.1906 262.1649 0003113 238.9764 234.3965  1.00271735 20051
SXM-8                   
1 48838U 21049A   26192.26287476 -.00000198  00000+0  00000+0 0  9996
2 48838   0.0166  41.2834 0005309 349.7343 267.6421  1.00270527 18829
STAR ONE D2             
1 49055U 21069A   26192.21304539  .00000000  00000+0  00000+0 0  9996
2 49055   0.0124  22.3887 0002361 105.9645 167.3774  1.00270083 18188
