OBJECT_NAME,OBJECT_ID,EPOCH,MEAN_MOTION,ECCENTRICITY,INCLINATION,RA_OF_ASC_NODE,ARG_OF_PERICENTER,MEAN_ANOMALY,EPHEMERIS_TYPE,CLASSIFICATION_TYPE,NORAD_CAT_ID,ELEMENT_SET_NO,REV_AT_EPOCH,BSTAR,MEAN_MOTION_DOT,MEAN_MOTION_DDOT
ELEKTRO-L 3,2019-095A,2026-07-11T21:24:52.386336,1.00271254,.000117,0.3168,82.1721,19.0367,225.7919,0,U,44903,999,2395,0,-.93E-6,0
SHIJIAN-20 (SJ-20),2019-097A,2026-07-11T18:54:19.139328,1.00267470,.0015273,4.9785,74.7624,57.0767,126.2552,0,U,44910,999,2394,0,.135E-5,0
TJS-5,2020-002A,2026-07-11T20:54:34.399872,1.00269803,.0007697,0.0544,73.7714,340.4814,296.6685,0,U,44978,999,2395,0,-.338E-5,0
EUTELSAT KONNECT,2020-005B,2026-07-11T01:51:38.568672,1.00274006,.00021805,0.0674,93.9375,138.2522,91.9289,0,U,45027,999,2457,0,.58E-6,0
JCSAT-17,2020-013A,2026-07-11T21:02:56.097888,1.00270308,.0002844,5.3920,357.0937,128.2195,256.2141,0,U,45245,999,2348,0,-.309E-5,0
GEO-KOMPSAT-2B,2020-013B,2026-07-11T19:17:59.640000,1.00271556,.0000732,0.0486,227.7299,9.7941,109.9377,0,U,45246,999,2352,0,-.339E-5,0
AEHF-6 (USA 298),2020-022B,2026-07-11T21:03:33.539328,1.00272445,.0042075,2.4958,301.4532,15.3891,66.5875,0,U,45465,999,2326,0,-.29E-5,0
BEIDOU-3 G3,2020-040A,2026-07-11T19:13:00.118848,1.00265664,.0001762,2.5040,67.4759,327.4813,293.4558,0,U,45807,999,2231,0,-.351E-5,0
APSTAR-6D,2020-045A,2026-07-11T21:02:18.658176,1.00269526,.0001227,0.0428,92.8120,21.2806,265.2799,0,U,45863,999,2210,0,-.314E-5,0
KOREASAT 116,2020-048A,2026-07-11T19:14:37.464000,1.00268344,.0000743,0.0142,25.4271,95.5084,213.6268,0,U,45920,999,2188,0,-.358E-5,0
EXPRESS 103,2020-053A,2026-07-11T15:31:10.327584,1.00270707,.0001083,0.0297,266.1445,206.0138,146.6841,0,U,45985,999,2189,0,-.275E-5,0
EXPRESS 80,2020-053B,2026-07-11T23:20:36.932352,1.00271327,.0001735,0.0207,33.2090,167.5948,159.1891,0,U,45986,999,2187,0,0,0
GALAXY 30 (G-30),2020-056C,2026-07-11T18:05:51.023328,1.00270605,.0001932,0.0298,46.6859,69.9246,319.5079,0,U,46114,999,2153,0,0,0
TIANTONG-1 2,2020-082A,2026-07-11T21:49:55.488000,1.00268201,.0001301,0.7616,331.1426,143.0951,267.9817,0,U,46916,999,2090,0,-.351E-5,0
LUCAS (JDRS-1),2020-089A,2026-07-11T20:50:04.831008,1.00271505,.0001624,0.0378,278.0183,184.4659,230.6088,0,U,47202,999,2066,0,-.232E-5,0
SXM-7,2020-096A,2026-07-11T04:58:21.176256,1.00271031,.00035165,0.0261,98.9403,22.6902,156.9180,0,U,47240,999,768,0,-.198E-5,0
TURKSAT 5A,2021-001A,2026-07-11T01:35:38.676768,1.00272283,.00001831,0.0141,67.3124,205.2380,71.2662,0,U,47306,999,2020,0,.162E-5,0
TIANTONG-1 3,2021-003A,2026-07-11T21:28:02.081856,1.00270952,.0003072,1.7384,340.7901,139.0954,213.4642,0,U,47321,999,2020,0,-.149E-5,0
TJS-6,2021-010A,2026-07-11T17:49:45.067008,1.00271735,.0003114,0.1906,262.1649,238.9764,234.3965,0,U,47613,999,2005,0,.47E-6,0
SXM-8,2021-049A,2026-07-11T06:18:32.379264,1.00270527,.00053091,0.0166,41.2834,349.7343,267.6421,0,U,48838,999,1882,0,-.198E-5,0
STAR ONE D2,2021-069A,2026-07-11T05:06:47.121696,1.00270083,.00023611,0.0124,22.3887,105.9645,167.3774,0,U,49055,999,1818,0,0,0
